INTELSAT 35E (IS-35E)   
1 42818U 17041A   26169.81677735  .00000000  00000+0  00000+0 0  9992
2 42818   0.0196  11.5128 0001999  77.1269  77.9564  1.00270860 32837
COSMOS 2520             
1 42907U 17046A   26169.47604609  .00000131  00000+0  00000+0 0  9993
2 42907   0.0475  93.6563 0001267   6.2150  23.1999  1.00271321 32412
TDRS 13                 
1 42915U 17047A   26169.82134186 -.00000107  00000+0  00000+0 0  9994
2 42915   3.4522   2.7933 0014549 106.3818  82.1247  1.00271704 32363
QZS-3 (MICHIBIKI-3)     
1 42917U 17048A   26169.82847257 -.00000354  00000+0  00000+0 0  9991
2 42917   0.0665 166.6691 0001914 276.9139 248.7177  1.00275328 32277
AMAZONAS 5              
1 42934U 17053A   26169.52633323 -.00000289  00000+0  00000+0 0  9997
2 42934   0.0314 327.6735 0002010  65.7866   1.7797  1.00272137 32050
ASIASAT 9               
1 42942U 17057A   26169.82516046 -.00000366  00000+0  00000+0 0  9991
2 42942   0.0138 102.7867 0002398 340.8284 242.6029  1.00271694 31871
INTELSAT 37E (IS-37E)   
1 42950U 17059A   26169.82004186 -.00000147  00000+0  00000+0 0  9996
2 42950   0.0180  16.2894 0002548  96.0416  71.9467  1.00271090 32083
BSAT-4A                 
1 42951U 17059B   26169.81674022 -.00000357  00000+0  00000+0 0  9991
2 42951   0.0342 348.8532 0004074  80.3780 241.6768  1.00272043 31812
QZS-4 (MICHIBIKI-4)     
1 42965U 17062A   26169.35012919 -.00000360  00000+0  00000+0 0  9994
2 42965  40.1070 343.4662 0745019 271.8091 274.2172  1.00250086 31812
SES-11 (ECHOSTAR 105)   
1 42967U 17063A   26169.66027102 -.00000095  00000+0  00000+0 0  9996
2 42967   0.0149 353.5311 0002748  79.1432 326.9657  1.00270840 31736
KOREASAT 5A             
1 42984U 17067A   26169.81745089 -.00000364  00000+0  00000+0 0  9996
2 42984   0.0195 304.8735 0000662 130.1776 239.4250  1.00270177 31546
ALCOMSAT 1              
1 43039U 17078A   26169.46217934 -.00000193  00000+0  00000+0 0  9994
2 43039   0.0288 266.2693 0002297 168.8948 333.1005  1.00269166 31300
SBIRS GEO-3 (USA 282)   
1 43162U 18009A   26169.79190391  .00000121  00000+0  00000+0 0  9999
2 43162   2.1857  12.2091 0001910  65.3899 315.1084  1.00272038 30869
AL YAH 3                
1 43174U 18012A   26169.60570909 -.00000163  00000+0  00000+0 0  9990
2 43174   1.5565  83.0917 0003947   2.0468  19.6294  1.00269803 30861
SES-14                  
1 43175U 18012B   26169.52901991 -.00000285  00000+0  00000+0 0  9996
2 43175   0.0195  29.8723 0000856  72.0057 307.8305  1.00275741  7031
GOES 17                 
1 43226U 18022A   26169.80585730 -.00000189  00000+0  00000+0 0  9997
2 43226   0.9422  85.6810 0000491  27.7063 354.2380  1.00269550 30447
HISPASAT 30W-6          
1 43228U 18023A   26169.46122602 -.00000223  00000+0  00000+0 0  9996
2 43228   0.0456  42.9949 0005738  27.2662 332.4700  1.00269727 30412
SUPERBIRD-B3            
1 43271U 18033A   26169.78436389 -.00000099  00000+0  00000+0 0  9991
2 43271   0.0105  27.2965 0000992  55.9853 268.1133  1.00271739 30075
HYLAS 4                 
1 43272U 18033B   26169.46053269 -.00000239  00000+0  00000+0 0  9995
2 43272   0.0174  20.9775 0001294  86.0301 291.9719  1.00280023 30070
IRNSS-1I                
1 43286U 18035A   26166.83981681  .00000062  00000+0  00000+0 0  9991
2 43286  28.7520  74.2167 0017811 181.5598   5.5147  1.00272046 30064
USA 283                 
1 43339U 18036A   26166.49948147  .00000000  00000+0  00000+0 0  9995
2 43339   0.0182   1.8047 0000468 172.3670  43.5385  1.00267801 25278
COSMOS 2526             
1 43432U 18037A   26169.58948706 -.00000351  00000+0  00000+0 0  9994
2 43432   0.0289  34.2955 0000564 200.0654  12.7395  1.00269106 29976
APSTAR-6C               
1 43450U 18041A   26168.85207074 -.00000324  00000+0  00000+0 0  9994
2 43450   0.0269  17.8003 0000917 325.0673   3.9650  1.00268661 29810
BANGABANDHUSAT-1        
1 43463U 18044A   26169.82295486 -.00000369  00000+0  00000+0 0  9992
2 43463   0.0317  87.1337 0001705 358.1208 237.1473  1.00269038 29728
SES-12                  
1 43488U 18049A   26169.80315703 -.00000276  00000+0  00000+0 0  9994
2 43488   0.0153  19.8048 0000720 268.6733   2.6933  1.00270958 29435
FENGYUN 2H              
1 43491U 18050A   26169.83935609 -.00000137  00000+0  00000+0 0  9992
2 43491   3.0362  79.0537 0001952 138.1870  71.3920  1.00269379 29452
BEIDOU-2 IGSO-7         
1 43539U 18057A   26168.91820174 -.00000040  00000+0  00000+0 0  9993
2 43539  55.1940 163.0508 0105157 238.0681 305.4943  1.00251228 29134
TELSTAR 19V             
1 43562U 18059A   26169.45463932 -.00000286  00000+0  00000+0 0  9998
2 43562   0.0192 170.6171 0002571 297.8062 258.9345  1.00274890 29150
TELKOM 4 (MERAH PUTIH)  
1 43587U 18064A   26169.81415579  .00000000  00000+0  00000+0 0  9998
2 43587   0.0163   0.6116 0001486 120.7343 186.7929  1.00266997 28891
TELSTAR 18V             
1 43611U 18069A   26169.77959720 -.00000300  00000+0  00000+0 0  9991
2 43611   0.0176 297.1686 0001763 146.0782 242.4129  1.00270922 28653
AZERSPACE 2 (IS-38)     
1 43632U 18074A   26169.83250029  .00000130  00000+0  00000+0 0  9993
2 43632   0.0173  13.0602 0001501  88.7609 150.0486  1.00272690 28469
HORIZONS-3E             
1 43633U 18074B   26169.64319762 -.00000037  00000+0  00000+0 0  9990
2 43633   0.0047 132.2714 0000758 140.4157  34.7443  1.00271097 28354
